NORAD_CAT_ID,OBJECT_NAME,OBJECT_TYPE,EPOCH,MEAN_MOTION,ECCENTRICITY,INCLINATION,RA_OF_ASC_NODE,ARG_OF_PERICENTER,MEAN_ANOMALY,BSTAR,MEAN_MOTION_DOT,MEAN_MOTION_DDOT,TLE_LINE0,TLE_LINE1,TLE_LINE2,SEMIMAJOR_AXIS,PERIOD,APOGEE,PERIGEE,DECAYED
52868.0,STARLINK-4261,PAYLOAD,2023-08-10 11:02:45,15.08842558,9.64e-05,53.2173,293.987,82.1782,277.932,7.7049e-05,9.39e-06,0.0,0 STARLINK-4261,1 52868U 22062AQ  23222.46025131  .00000939  00000-0  77049-4 0  9996,2 52868  53.2173 293.9870 0000964  82.1782 277.9320 15.08842558 64171,6917.873,95.437,540.404,539.071,0.0
52868.0,STARLINK-4261,PAYLOAD,2023-08-10 14:13:31,15.08850473,0.0001091,53.2172,293.3913,65.7892,294.3214,9.4626e-05,1.219e-05,0.0,0 STARLINK-4261,1 52868U 22062AQ  23222.59272582  .00001219  00000-0  94626-4 0  9996,2 52868  53.2172 293.3913 0001091  65.7892 294.3214 15.08850473 64195,6917.848,95.437,540.468,538.959,0.0
52868.0,STARLINK-4261,PAYLOAD,2023-08-10 22:10:27,15.08842156,9.47e-05,53.2176,291.9032,79.0297,281.0802,5.1949e-05,5.39e-06,0.0,0 STARLINK-4261,1 52868U 22062AQ  23222.92393052  .00000539  00000-0  51949-4 0  9994,2 52868  53.2176 291.9032 0000947  79.0297 281.0802 15.08842156 64242,6917.874,95.437,540.394,539.084,0.0
52868.0,STARLINK-4261,PAYLOAD,2023-08-12 10:44:19,15.08843879,0.0001,53.217,285.0633,89.3471,270.7636,-1.2315e-05,-4.84e-06,0.0,0 STARLINK-4261,1 52868U 22062AQ  23224.44745043 -.00000484  00000-0 -12315-4 0  9999,2 52868  53.2170 285.0633 0001000  89.3471 270.7636 15.08843879 64474,6917.869,95.437,540.425,539.042,0.0
52868.0,STARLINK-4261,PAYLOAD,2023-08-13 12:10:29,15.08838954,0.0001136,53.2169,280.3036,102.8571,257.2549,3.7928e-05,3.16e-06,0.0,0 STARLINK-4261,1 52868U 22062AQ  23225.50729107  .00000316  00000-0  37928-4 0  9999,2 52868  53.2169 280.3036 0001136 102.8571 257.2549 15.08838954 64638,6917.884,95.438,540.534,538.963,0.0
52868.0,STARLINK-4261,PAYLOAD,2023-08-14 13:36:40,15.08842458,0.0001049,53.2163,275.5466,102.4339,257.677,2.9639e-05,1.84e-06,0.0,0 STARLINK-4261,1 52868U 22062AQ  23226.56713075  .00000184  00000-0  29639-4 0  9996,2 52868  53.2163 275.5466 0001049 102.4339 257.6770 15.08842458 64797,6917.873,95.437,540.464,539.012,0.0
52868.0,STARLINK-4261,PAYLOAD,2023-08-15 08:41:18,15.08833004,0.0001067,53.2167,271.9777,91.4632,268.6483,5.0214e-05,5.11e-06,0.0,0 STARLINK-4261,1 52868U 22062AQ  23227.36201813  .00000511  00000-0  50214-4 0  9994,2 52868  53.2167 271.9777 0001067  91.4632 268.6483 15.08833004 64913,6917.902,95.438,540.505,539.029,0.0
52868.0,STARLINK-4261,PAYLOAD,2023-08-16 10:07:28,15.08835441,0.000113,53.2162,267.2211,90.4242,269.688,3.7135e-05,3.03e-06,0.0,0 STARLINK-4261,1 52868U 22062AQ  23228.42186167  .00000303  00000-0  37135-4 0  9992,2 52868  53.2162 267.2211 0001130  90.4242 269.6880 15.08835441 65073,6917.894,95.438,540.541,538.978,0.0
52868.0,STARLINK-4261,PAYLOAD,2023-08-17 09:58:15,15.08845652,0.0001194,53.2165,262.7616,84.0429,276.0699,0.00013697,1.893e-05,0.0,0 STARLINK-4261,1 52868U 22062AQ  23229.41545347  .00001893  00000-0  13697-3 0  9992,2 52868  53.2165 262.7616 0001194  84.0429 276.0699 15.08845652 65223,6917.863,95.437,540.554,538.902,0.0
52868.0,STARLINK-4261,PAYLOAD,2023-08-18 01:52:07,15.08837149,0.0001224,53.2162,259.7882,86.3166,273.7967,7.1259e-05,8.46e-06,0.0,0 STARLINK-4261,1 52868U 22062AQ  23230.07786063  .00000846  00000-0  71259-4 0  9994,2 52868  53.2162 259.7882 0001224  86.3166 273.7967 15.08837149 65323,6917.889,95.438,540.601,538.907,0.0
52868.0,STARLINK-4261,PAYLOAD,2023-08-19 09:39:49,15.0884543,0.0001263,53.216,253.8405,88.2812,271.8325,1.1747e-05,-1.01e-06,0.0,0 STARLINK-4261,1 52868U 22062AQ  23231.40265605 -.00000101  00000-0  11747-4 0  9997,2 52868  53.2160 253.8405 0001263  88.2812 271.8325 15.08845430 65520,6917.864,95.437,540.603,538.855,0.0
52868.0,STARLINK-4261,PAYLOAD,2023-08-20 11:06:00,15.08837992,0.0001265,53.216,249.0821,91.3404,268.7733,3.1791e-05,2.18e-06,0.0,0 STARLINK-4261,1 52868U 22062AQ  23232.46250006  .00000218  00000-0  31791-4 0  9992,2 52868  53.2160 249.0821 0001265  91.3404 268.7733 15.08837992 65682,6917.887,95.438,540.627,538.876,0.0
52868.0,STARLINK-4261,PAYLOAD,2023-08-22 04:25:47,15.09025065,0.0001879,53.2157,241.3491,153.0289,207.0801,0.0016391,0.00026028,0.0,0 STARLINK-4261,1 52868U 22062AQ  23234.18458119  .00026028  00000-0  16391-2 0  9992,2 52868  53.2157 241.3491 0001879 153.0289 207.0801 15.09025065 65946,6917.315,95.426,540.48,537.88,0.0
52868.0,STARLINK-4261,PAYLOAD,2023-08-22 12:22:57,15.08839619,0.0001275,53.2155,239.8632,97.0918,263.0219,6.8224e-05,7.98e-06,0.0,0 STARLINK-4261,1 52868U 22062AQ  23234.51594180  .00000798  00000-0  68224-4 0  9998,2 52868  53.2155 239.8632 0001275  97.0918 263.0219 15.08839619 65996,6917.882,95.438,540.629,538.865,0.0
52868.0,STARLINK-4261,PAYLOAD,2023-08-23 01:06:03,15.08834096,0.0001296,53.216,237.4854,100.7768,259.337,4.0121e-06,-2.24e-06,0.0,0 STARLINK-4261,1 52868U 22062AQ  23235.04586861 -.00000224  00000-0  40121-5 0  9996,2 52868  53.2160 237.4854 0001296 100.7768 259.3370 15.08834096 66070,6917.898,95.438,540.66,538.867,0.0
52868.0,STARLINK-4261,PAYLOAD,2023-08-24 15:15:18,15.08836874,0.0001308,53.2164,230.3514,74.4465,285.6671,1.4042e-05,-6.4e-07,0.0,0 STARLINK-4261,1 52868U 22062AQ  23236.63562985 -.00000064  00000-0  14042-4 0  9997,2 52868  53.2164 230.3514 0001308  74.4465 285.6671 15.08836874 66313,6917.89,95.438,540.66,538.85,0.0
52868.0,STARLINK-4261,PAYLOAD,2023-08-25 07:09:09,15.08841343,0.0001426,53.216,227.3745,82.714,277.4014,7.2367e-05,8.64e-06,0.0,0 STARLINK-4261,1 52868U 22062AQ  23237.29802617  .00000864  00000-0  72367-4 0  9990,2 52868  53.2160 227.3745 0001426  82.7140 277.4014 15.08841343 65927,6917.876,95.437,540.728,538.755,0.0
52868.0,STARLINK-4261,PAYLOAD,2023-08-26 05:24:33,15.08841209,0.0001382,53.2157,223.2112,85.142,274.973,1.6842e-05,-2e-07,0.0,0 STARLINK-4261,1 52868U 22062AQ  23238.22538803 -.00000020  00000-0  16842-4 0  9998,2 52868  53.2157 223.2112 0001382  85.1420 274.9730 15.08841209 66069,6917.877,95.437,540.698,538.786,0.0
52868.0,STARLINK-4261,PAYLOAD,2023-08-27 02:04:35,15.08807677,0.0001492,53.2164,219.3455,93.1523,266.9639,0.00056524,8.711e-05,0.0,0 STARLINK-4261,1 52868U 22062AQ  23239.08651658  .00008711  00000-0  56524-3 0  9991,2 52868  53.2164 219.3455 0001492  93.1523 266.9639 15.08807677 66686,6917.979,95.44,540.876,538.812,0.0
52868.0,STARLINK-4261,PAYLOAD,2023-08-27 08:26:06,15.08847051,0.0001478,53.2159,218.1551,90.9061,269.2101,8.4428e-05,1.056e-05,0.0,0 STARLINK-4261,1 52868U 22062AQ  23239.35146064  .00001056  00000-0  84428-4 0  9991,2 52868  53.2159 218.1551 0001478  90.9061 269.2101 15.08847051 66725,6917.859,95.437,540.746,538.701,0.0
52868.0,STARLINK-4261,PAYLOAD,2023-08-28 01:55:21,15.08836612,0.0001685,53.2167,214.8817,102.8964,257.2216,-9.1101e-06,-4.33e-06,0.0,0 STARLINK-4261,1 52868U 22062AQ  23240.08010998 -.00000433  00000-0 -91101-5 0  9996,2 52868  53.2167 214.8817 0001685 102.8964 257.2216 15.08836612 66834,6917.891,95.438,540.921,538.59,0.0
52868.0,STARLINK-4261,PAYLOAD,2023-08-28 08:16:54,15.08835969,0.0001601,53.2163,213.6929,101.9633,258.1539,-7.0046e-06,-3.99e-06,0.0,0 STARLINK-4261,1 52868U 22062AQ  23240.34507048 -.00000399  00000-0 -70046-5 0  9998,2 52868  53.2163 213.6929 0001601 101.9633 258.1539 15.08835969 66384,6917.893,95.438,540.865,538.65,0.0
52868.0,STARLINK-4261,PAYLOAD,2023-08-29 06:32:17,15.08842204,0.000134,53.2158,209.5326,98.2105,261.9039,-3.0995e-07,-2.93e-06,0.0,0 STARLINK-4261,1 52868U 22062AQ  23241.27242765 -.00000293  00000-0 -30995-6 0  9996,2 52868  53.2158 209.5326 0001340  98.2105 261.9039 15.08842204 67013,6917.874,95.437,540.666,538.812,0.0
52868.0,STARLINK-4261,PAYLOAD,2023-08-30 01:36:55,15.08835255,0.0001278,53.2157,205.9648,94.939,265.1748,2.6306e-05,1.31e-06,0.0,0 STARLINK-4261,1 52868U 22062AQ  23242.06731386  .00000131  00000-0  26306-4 0  9994,2 52868  53.2157 205.9648 0001278  94.9390 265.1748 15.08835255 67132,6917.895,95.438,540.644,538.876,0.0
52868.0,STARLINK-4261,PAYLOAD,2023-08-30 14:20:01,15.08834097,0.0001462,53.2164,203.5847,92.5124,267.6036,2.5833e-05,1.23e-06,0.0,0 STARLINK-4261,1 52868U 22062AQ  23242.59723526  .00000123  00000-0  25833-4 0  9994,2 52868  53.2164 203.5847 0001462  92.5124 267.6036 15.08834097 66723,6917.898,95.438,540.775,538.752,0.0
52868.0,STARLINK-4261,PAYLOAD,2023-08-31 06:13:52,15.08836819,0.0001183,53.2164,200.612,98.5163,261.5963,1.0423e-05,-1.22e-06,0.0,0 STARLINK-4261,1 52868U 22062AQ  23243.25963544 -.00000122  00000-0  10423-4 0  9993,2 52868  53.2164 200.6120 0001183  98.5163 261.5963 15.08836819 67316,6917.89,95.438,540.573,538.937,0.0
52868.0,STARLINK-4261,PAYLOAD,2023-09-01 06:04:40,15.08811402,0.0001299,53.2158,196.1562,160.38,199.7242,9.3379e-07,-2.73e-06,0.0,0 STARLINK-4261,1 52868U 22062AQ  23244.25324735 -.00000273  00000-0  93379-6 0  9997,2 52868  53.2158 196.1562 0001299 160.3800 199.7242 15.08811402 67461,6917.968,95.439,540.731,538.934,0.0
52868.0,STARLINK-4261,PAYLOAD,2023-09-01 20:23:07,15.08837649,9.76e-05,53.2163,193.4756,98.5229,261.5874,7.9792e-05,9.82e-06,0.0,0 STARLINK-4261,1 52868U 22062AQ  23244.84939550  .00000982  00000-0  79792-4 0  9996,2 52868  53.2163 193.4756 0000976  98.5229 261.5874 15.08837649 67550,6917.888,95.438,540.428,539.077,0.0
52868.0,STARLINK-4261,PAYLOAD,2023-09-01 23:33:52,15.08919994,0.0001682,53.2149,192.88,94.0464,266.0721,-0.0010244,-0.0001659,0.0,0 STARLINK-4261,1 52868U 22062AQ  23244.98185303 -.00016590  00000-0 -10244-2 0  9999,2 52868  53.2149 192.8800 0001682  94.0464 266.0721 15.08919994 67571,6917.636,95.432,540.664,538.337,0.0
52868.0,STARLINK-4261,PAYLOAD,2023-09-02 05:55:26,15.08843036,0.0001628,53.2139,191.6893,86.7115,273.4063,9.7604e-05,1.266e-05,0.0,0 STARLINK-4261,1 52868U 22062AQ  23245.24683385  .00001266  00000-0  97604-4 0  9991,2 52868  53.2139 191.6893 0001628  86.7115 273.4063 15.08843036 67619,6917.871,95.437,540.862,538.61,0.0
